[{"OBJECT_NAME":"STARLINK-5192","OBJECT_ID":"2022-136Z","EPOCH":"2026-03-09T21:59:53.069280","MEAN_MOTION":15.08832134,"ECCENTRICITY":0.00014424,"INCLINATION":53.2184,"RA_OF_ASC_NODE":342.7199,"ARG_OF_PERICENTER":91.7596,"MEAN_ANOMALY":268.3562,"EPHEMERIS_TYPE":0,"CLASSIFICATION_TYPE":"U","NORAD_CAT_ID":54074,"ELEMENT_SET_NO":999,"REV_AT_EPOCH":18688,"BSTAR":-4.401603e-5,"MEAN_MOTION_DOT":-9.88e-6,"MEAN_MOTION_DDOT":0},{"OBJECT_NAME":"AZUR (GRS A)","OBJECT_ID":"1969-097A","EPOCH":"2026-03-09T21:41:10.048992","MEAN_MOTION":15.2598686,"ECCENTRICITY":0.02451425,"INCLINATION":102.6572,"RA_OF_ASC_NODE":142.7505,"ARG_OF_PERICENTER":125.1196,"MEAN_ANOMALY":237.3267,"EPHEMERIS_TYPE":0,"CLASSIFICATION_TYPE":"U","NORAD_CAT_ID":4221,"ELEMENT_SET_NO":999,"REV_AT_EPOCH":71023,"BSTAR":0.0010311441,"MEAN_MOTION_DOT":0.00065195,"MEAN_MOTION_DDOT":0}]
